GLOBALSTAR M035         
1 25851U 99037A   25320.73061734 -.00000062  00000+0  51769-4 0  9992
2 25851  51.9952  74.7735 0013312 224.9844 307.1479 11.04540437113117
GLOBALSTAR M032         
1 25852U 99037B   25320.53924654  .00000070  00000+0  43832-2 0  9998
2 25852  51.9950 249.8941 0013133  62.1414 298.0715 11.19069320151842
GLOBALSTAR M051         
1 25853U 99037C   25320.67667808 -.00000084  00000+0 -28996-3 0  9991
2 25853  51.9827  33.0267 0000840 132.2014 227.8868 11.42206912149815
GLOBALSTAR M030         
1 25854U 99037D   25320.64390639 -.00000108  00000+0 -70944-3 0  9991
2 25854  51.9856 189.5183 0003021 340.7163  19.3539 11.55109686167663
GLOBALSTAR M048         
1 25872U 99041A   25320.35141122 -.00000045  00000+0  67574-3 0  9999
2 25872  51.9392 334.7310 0013339  88.0312 284.8451 11.33860063142243
GLOBALSTAR M026         
1 25873U 99041B   25320.67556211 -.00000164  00000+0 -36854-2 0  9993
2 25873  51.9979 191.2508 0001927 131.8424 262.0673 11.06848897165375
GLOBALSTAR M043         
1 25874U 99041C   25320.75259810 -.00000080  00000+0 -34743-3 0  9991
2 25874  51.9398  87.4972 0013517 207.0132 302.5637 11.25696411140054
GLOBALSTAR M028         
1 25875U 99041D   25320.64796501 -.00000072  00000+0  18888-3 0  9995
2 25875  51.9611  98.4484 0063660  43.3756 317.2091 12.50591805209255
